ORBCOMM FM33            
1 25983U 99065D   25258.34761913  .00000984  00000+0  35335-3 0  9994
2 25983  45.0284 290.2525 0007968 173.8166 186.2783 14.40173489349067
ORBCOMM FM36            
1 25984U 99065E   25258.63806608  .00000967  00000+0  36118-3 0  9999
2 25984  45.0407  22.1841 0001532  56.9622 303.1374 14.38328889347446
ORBCOMM FM35            
1 25985U 99065F   25258.61363868  .00000836  00000+0  32528-3 0  9990
2 25985  45.0409  28.0564 0004510 146.4171 213.6964 14.37277009347793
ORBCOMM FM34            
1 25986U 99065G   25258.43976554  .00001045  00000+0  39476-3 0  9995
2 25986  45.0404  29.3348 0003461  98.2976 261.8265 14.37278712347885
ORBCOMM FM38            
1 33060U 08031A   25258.38782080  .00002120  00000+0  29354-3 0  9992
2 33060  48.4396 245.2857 0004484  62.4241 297.7130 14.81653165928121
ORBCOMM FM41            
1 33061U 08031B   25258.28432803  .00002033  00000+0  28543-3 0  9999
2 33061  48.4432 253.8722 0003850  42.7780 330.8471 14.81225701927592
ORBCOMM FM29            
1 33062U 08031C   25258.06476068  .00001288  00000+0  19042-3 0  9992
2 33062  48.4385 262.6152 0005491  43.9437 356.7386 14.81335242927471
ORBCOMM FM39            
1 33063U 08031D   25258.44703610  .00001593  00000+0  23695-3 0  9999
2 33063  48.4402 286.0680 0006659  16.9661 343.1476 14.79855016927163
